
 1 90027U RELEAS14 00051.03935584 +.00000209  00000 0  99999-4 4 1844                                                                                                                                                                                                                                                                                                                                                                                                                                                           
 2 90027  64.3871 233.3669 6991935 271.4388  16.5332  1.9699794003847                                                                                                                                                                                                                                                                                                                                                                                                                                                           

         0.0000000        1.9699794        0.6991935       64.3871000      233.3669000      271.4388000       16.5332000
      2700.0000000        1.9699838        0.6991300       64.3902367      233.1509840      271.4201977      266.2216130
      5400.0000000        1.9700081        0.6990268       64.3939791      232.9388621      271.3989853      155.9158425
      8100.0000000        1.9700473        0.6989179       64.3966074      232.7317262      271.3749413       45.6310888
     10800.0000000        1.9700936        0.6988291       64.3975841      232.5281288      271.3497660      295.3774662
     13500.0000000        1.9701387        0.6987716       64.3973415      232.3255748      271.3255393      185.1583653
     16200.0000000        1.9701752        0.6987424       64.3969198      232.1214788      271.3038543       74.9705200
     18900.0000000        1.9701975        0.6987250       64.3975611      231.9138971      271.2852400      324.8049133
     21600.0000000        1.9702020        0.6986922       64.4000197      231.7025713      271.2685451      214.6484104
     24300.0000000        1.9701878        0.6986199       64.4036876      231.4898367      271.2508317      104.4865631
     27000.0000000        1.9701569        0.6985102       64.4064995      231.2796557      271.2289242      354.3072424
     29700.0000000        1.9701137        0.6983999       64.4064758      231.0741606      271.2022235      244.1029256
     32400.0000000        1.9700658        0.6983307       64.4037323      230.8709793      271.1738611      133.8701230
     35100.0000000        1.9700219        0.6983060       64.4006840      230.6650838      271.1482361       23.6079250
     37800.0000000        1.9699907        0.6982850       64.4000480      230.4537837      271.1270272      273.3185808
     40500.0000000        1.9699785        0.6982226       64.4025951      230.2394360      271.1078126      163.0097921
     43200.0000000        1.9699875        0.6981109       64.4068453      230.0268667      271.0868362       52.6952175


 1 90028U RELEAS14 00051.15714066 -.00000031  00000 0 -13568-4 4 0377                                                                                                                                                                                                                                                                                                                                                                                                                                                           
 2 90028  72.5158 115.6069 0011430 124.7615 235.4297 12.4439648802428                                                                                                                                                                                                                                                                                                                                                                                                                                                           

         0.0000000       12.4439649        0.0011430       72.5158000      115.6069000      124.7615000      235.4297000
      2700.0000000       12.4439649        0.0011650       72.5149943      112.9169474      123.8731068      350.2721718
      5400.0000000       12.4439649        0.0011864       72.5146116      110.2269493      122.9805147      105.1199315
      8100.0000000       12.4439649        0.0012068       72.5147150      107.5371321      122.0793805      219.9761043
     10800.0000000       12.4439649        0.0012267       72.5150129      104.8475264      121.1618915      334.8477469
     13500.0000000       12.4439649        0.0012463       72.5151495      102.1579983      120.2279862       89.7349469
     16200.0000000       12.4439649        0.0012656       72.5149075       99.4683400      119.2835221      204.6324881
     18900.0000000       12.4439649        0.0012841       72.5143249       96.7783806      118.3318103      319.5379476
     21600.0000000       12.4439649        0.0013018       72.5137173       94.0881100      117.3691016       74.4556729
     24300.0000000       12.4439649        0.0013190       72.5135106       91.3977422      116.3917857      189.3890227
     27000.0000000       12.4439649        0.0013360       72.5138788       88.7075959      115.4066209      304.3301095
     29700.0000000       12.4439649        0.0013524       72.5145081       86.0178128      114.4231720       59.2682543
     32400.0000000       12.4439649        0.0013677       72.5148405       83.3281903      113.4389577      174.2059394
     35100.0000000       12.4439649        0.0013825       72.5146230       80.6383504      112.4481893      289.1501435
     37800.0000000       12.4439649        0.0013970       72.5141878       77.9481175      111.4575412       44.0953927
     40500.0000000       12.4439649        0.0014111       72.5141169       75.2577163      110.4734992      159.0351546
     43200.0000000       12.4439649        0.0014240       72.5146337       72.5675477      109.4863859      273.9779095


 1 90029U RELEAS14 00051.38558242 +.00000961  00000 0  44365-3 4 5319                                                                                                                                                                                                                                                                                                                                                                                                                                                           
 2 90029  98.7064 100.2836 0014146 119.4841 240.7749 14.2193618701011                                                                                                                                                                                                                                                                                                                                                                                                                                                           

         0.0000000       14.2193619        0.0014146       98.7064000      100.2836000      119.4841000      240.7749000
      2700.0000000       14.2193621        0.0014644       98.7058219      102.1313209      117.6892974      109.5460591
      5400.0000000       14.2193624        0.0015110       98.7056691      103.9791432      115.8380392      338.3737438
      8100.0000000       14.2193627        0.0015544       98.7057910      105.8270362      113.9397126      207.2480854
     10800.0000000       14.2193630        0.0015947       98.7059450      107.6749183      112.0005990       76.1626967
     13500.0000000       14.2193632        0.0016321       98.7059218      109.5227025      110.0255274      305.1129139
     16200.0000000       14.2193635        0.0016660       98.7055949      111.3703229      108.0189359      174.0946219
     18900.0000000       14.2193638        0.0016964       98.7049570      113.2177637      105.9857282       43.1033205
     21600.0000000       14.2193641        0.0017229       98.7041563      115.0650835      103.9318526      272.1334110
     24300.0000000       14.2193644        0.0017458       98.7034740      116.9124023      101.8633870      141.1788813
     27000.0000000       14.2193647        0.0017653       98.7031710      118.7598242       99.7834995       10.2361829
     29700.0000000       14.2193650        0.0017814       98.7032770      120.6073464       97.6907629      239.3060905
     32400.0000000       14.2193653        0.0017936       98.7035222      122.4548470       95.5831562      108.3901748
     35100.0000000       14.2193657        0.0018016       98.7035120      124.3021755       93.4640090      337.4852373
     37800.0000000       14.2193660        0.0018058       98.7030267      126.1492750       91.3410335      206.5842159
     40500.0000000       14.2193663        0.0018064       98.7022022      127.9962244       89.2186439       75.6833483
     43200.0000000       14.2193667        0.0018034       98.7014011      129.8431545       87.0955754      304.7840338

